NORAD_CAT_ID,OBJECT_NAME,OBJECT_TYPE,EPOCH,MEAN_MOTION,ECCENTRICITY,INCLINATION,RA_OF_ASC_NODE,ARG_OF_PERICENTER,MEAN_ANOMALY,BSTAR,MEAN_MOTION_DOT,MEAN_MOTION_DDOT,TLE_LINE0,TLE_LINE1,TLE_LINE2,SEMIMAJOR_AXIS,PERIOD,APOGEE,PERIGEE,DECAYED
54187.0,STARLINK-5240,PAYLOAD,2024-07-03 20:46:29,15.08841738,0.0001307,53.2161,239.5125,101.7713,258.3426,1.8418e-05,5e-08,0.0,0 STARLINK-5240,1 54187U 22141AG  24185.86562420  .00000005  00000-0  18418-4 0  9999,2 54187  53.2161 239.5125 0001307 101.7713 258.3426 15.08841738 93190,6917.875,95.437,540.644,538.836,0.0
54187.0,STARLINK-5240,PAYLOAD,2024-07-04 03:08:02,15.08837896,0.0001317,53.216,238.3225,91.5804,268.5339,0.00011979,1.619e-05,0.0,0 STARLINK-5240,1 54187U 22141AG  24186.13058410  .00001619  00000-0  11979-3 0  9995,2 54187  53.2160 238.3225 0001317  91.5804 268.5339 15.08837896 93461,6917.887,95.438,540.663,538.841,0.0
54187.0,STARLINK-5240,PAYLOAD,2024-07-04 11:04:57,15.08844116,0.0001339,53.216,236.8356,90.4236,269.6909,0.00011956,1.616e-05,0.0,0 STARLINK-5240,1 54187U 22141AG  24186.46178041  .00001616  00000-0  11956-3 0  9996,2 54187  53.2160 236.8356 0001339  90.4236 269.6909 15.08844116 93288,6917.868,95.437,540.659,538.807,0.0
54187.0,STARLINK-5240,PAYLOAD,2024-07-05 09:20:22,15.08841147,0.0001424,53.2164,232.6714,88.7228,271.3927,3.3239e-05,2.41e-06,0.0,0 STARLINK-5240,1 54187U 22141AG  24187.38914487  .00000241  00000-0  33239-4 0  9992,2 54187  53.2164 232.6714 0001424  88.7228 271.3927 15.08841147 93652,6917.877,95.437,540.727,538.757,0.0
54187.0,STARLINK-5240,PAYLOAD,2024-07-05 20:28:03,15.08842634,0.0001437,53.2161,230.5895,87.8438,272.2718,3.6157e-05,2.88e-06,0.0,0 STARLINK-5240,1 54187U 22141AG  24187.85282302  .00000288  00000-0  36157-4 0  9991,2 54187  53.2161 230.5895 0001437  87.8438 272.2718 15.08842634 93495,6917.872,95.437,540.731,538.743,0.0
54187.0,STARLINK-5240,PAYLOAD,2024-07-06 09:11:08,15.08843285,0.0001457,53.2162,228.2108,88.8263,271.2896,-1.37e-05,-5.06e-06,0.0,0 STARLINK-5240,1 54187U 22141AG  24188.38274285 -.00000506  00000-0 -13700-4 0  9995,2 54187  53.2162 228.2108 0001457  88.8263 271.2896 15.08843285 93574,6917.87,95.437,540.743,538.727,0.0
54187.0,STARLINK-5240,PAYLOAD,2024-07-06 20:18:50,15.08839629,0.000145,53.2164,226.1289,89.4249,270.6909,2.2388e-06,-2.52e-06,0.0,0 STARLINK-5240,1 54187U 22141AG  24188.84642343 -.00000252  00000-0  22388-5 0  9990,2 54187  53.2164 226.1289 0001450  89.4249 270.6909 15.08839629 93875,6917.882,95.438,540.75,538.743,0.0
54187.0,STARLINK-5240,PAYLOAD,2024-07-07 09:01:56,15.08837931,0.0001481,53.2162,223.7496,91.5394,268.5768,1.4606e-06,-2.65e-06,0.0,0 STARLINK-5240,1 54187U 22141AG  24189.37634447 -.00000265  00000-0  14606-5 0  9993,2 54187  53.2162 223.7496 0001481  91.5394 268.5768 15.08837931 93722,6917.887,95.438,540.776,538.727,0.0
54187.0,STARLINK-5240,PAYLOAD,2024-07-08 12:03:29,15.0883871,0.0001436,53.2164,218.6943,90.9232,269.1925,2.1013e-05,4.6e-07,0.0,0 STARLINK-5240,1 54187U 22141AG  24190.50242420  .00000046  00000-0  21013-4 0  9991,2 54187  53.2164 218.6943 0001436  90.9232 269.1925 15.08838710 94121,6917.884,95.438,540.743,538.756,0.0
54187.0,STARLINK-5240,PAYLOAD,2024-07-08 18:25:01,15.08838563,0.0001436,53.2164,217.5049,90.7537,269.362,2.7057e-05,1.43e-06,0.0,0 STARLINK-5240,1 54187U 22141AG  24190.76738419  .00000143  00000-0  27057-4 0  9999,2 54187  53.2164 217.5049 0001436  90.7537 269.3620 15.08838563 93930,6917.885,95.438,540.743,538.756,0.0
54187.0,STARLINK-5240,PAYLOAD,2024-07-09 08:43:30,15.08837488,0.0001384,53.2162,214.8293,89.013,271.1021,5.1839e-05,5.37e-06,0.0,0 STARLINK-5240,1 54187U 22141AG  24191.36354496  .00000537  00000-0  51839-4 0  9997,2 54187  53.2162 214.8293 0001384  89.0130 271.1021 15.08837488 94023,6917.888,95.438,540.711,538.796,0.0
54187.0,STARLINK-5240,PAYLOAD,2024-07-10 05:23:31,15.0883347,0.0001336,53.2161,210.9641,84.6503,275.4641,-2.6183e-05,-7.04e-06,0.0,0 STARLINK-5240,1 54187U 22141AG  24192.22467290 -.00000704  00000-0 -26183-4 0  9992,2 54187  53.2161 210.9641 0001336  84.6503 275.4641 15.08833470 94389,6917.9,95.438,540.69,538.841,0.0
54187.0,STARLINK-5240,PAYLOAD,2024-07-10 06:58:54,15.0883326,0.0001338,53.2161,210.6667,84.4119,275.7026,-2.8162e-05,-7.36e-06,0.0,0 STARLINK-5240,1 54187U 22141AG  24192.29091332 -.00000736  00000-0 -28162-4 0  9993,2 54187  53.2161 210.6667 0001338  84.4119 275.7026 15.08833260 94160,6917.901,95.438,540.692,538.84,0.0
54187.0,STARLINK-5240,PAYLOAD,2024-07-11 10:00:27,15.08840571,0.0001329,53.2161,205.6126,91.494,268.6205,5.108e-05,5.25e-06,0.0,0 STARLINK-5240,1 54187U 22141AG  24193.41698837  .00000525  00000-0  51080-4 0  9990,2 54187  53.2161 205.6126 0001329  91.4940 268.6205 15.08840571 94336,6917.879,95.438,540.663,538.824,0.0
54187.0,STARLINK-5240,PAYLOAD,2024-07-11 17:57:23,15.08838085,0.0001288,53.2159,204.1248,87.9791,272.1348,5.4662e-05,5.82e-06,0.0,0 STARLINK-5240,1 54187U 22141AG  24193.74819010  .00000582  00000-0  54662-4 0  9996,2 54187  53.2159 204.1248 0001288  87.9791 272.1348 15.08838085 94616,6917.886,95.438,540.642,538.86,0.0
54187.0,STARLINK-5240,PAYLOAD,2024-07-12 09:51:15,15.08839091,0.0001325,53.2158,201.1494,91.1043,269.0101,6.4956e-05,7.46e-06,0.0,0 STARLINK-5240,1 54187U 22141AG  24194.41059050  .00000746  00000-0  64956-4 0  9990,2 54187  53.2158 201.1494 0001325  91.1043 269.0101 15.08839091 94489,6917.883,95.438,540.665,538.832,0.0
54187.0,STARLINK-5240,PAYLOAD,2024-07-12 17:48:10,15.08838033,0.0001336,53.2157,199.6625,90.8498,269.2647,4.1898e-05,3.79e-06,0.0,0 STARLINK-5240,1 54187U 22141AG  24194.74179244  .00000379  00000-0  41898-4 0  9996,2 54187  53.2157 199.6625 0001336  90.8498 269.2647 15.08838033 94535,6917.886,95.438,540.676,538.827,0.0
54187.0,STARLINK-5240,PAYLOAD,2024-07-13 04:55:52,15.08841249,0.0001344,53.2156,197.5813,90.2675,269.8471,2.4938e-05,1.09e-06,0.0,0 STARLINK-5240,1 54187U 22141AG  24195.20547132  .00000109  00000-0  24938-4 0  9990,2 54187  53.2156 197.5813 0001344  90.2675 269.8471 15.08841249 94837,6917.877,95.437,540.671,538.812,0.0
54187.0,STARLINK-5240,PAYLOAD,2024-07-13 06:31:15,15.08841306,0.0001343,53.2156,197.2839,90.2483,269.8663,2.5063e-05,1.11e-06,0.0,0 STARLINK-5240,1 54187U 22141AG  24195.27171120  .00000111  00000-0  25063-4 0  9990,2 54187  53.2156 197.2839 0001343  90.2483 269.8663 15.08841306 94611,6917.876,95.437,540.67,538.812,0.0
54187.0,STARLINK-5240,PAYLOAD,2024-07-13 17:38:57,15.0884114,0.0001343,53.2157,195.2024,89.8772,270.2374,2.9497e-05,1.82e-06,0.0,0 STARLINK-5240,1 54187U 22141AG  24195.73539088  .00000182  00000-0  29497-4 0  9995,2 54187  53.2157 195.2024 0001343  89.8772 270.2374 15.08841140 94689,6917.877,95.437,540.671,538.813,0.0
54187.0,STARLINK-5240,PAYLOAD,2024-07-14 09:32:49,15.08841547,0.0001376,53.2158,192.2284,92.2907,267.8243,3.9048e-05,3.34e-06,0.0,0 STARLINK-5240,1 54187U 22141AG  24196.39779063  .00000334  00000-0  39048-4 0  9999,2 54187  53.2158 192.2284 0001376  92.2907 267.8243 15.08841547 95015,6917.876,95.437,540.693,538.789,0.0
54187.0,STARLINK-5240,PAYLOAD,2024-07-15 04:37:25,15.08851736,0.0001377,53.2161,188.6605,90.9536,269.1614,0.00011896,1.606e-05,0.0,0 STARLINK-5240,1 54187U 22141AG  24197.19265881  .00001606  00000-0  11896-3 0  9999,2 54187  53.2161 188.6605 0001377  90.9536 269.1614 15.08851736 95130,6917.845,95.437,540.662,538.757,0.0
54187.0,STARLINK-5240,PAYLOAD,2024-07-15 06:12:48,15.08853002,0.000138,53.2162,188.3627,92.507,267.608,0.00012786,1.748e-05,0.0,0 STARLINK-5240,1 54187U 22141AG  24197.25889734  .00001748  00000-0  12786-3 0  9991,2 54187  53.2162 188.3627 0001380  92.5070 267.6080 15.08853002 94910,6917.841,95.437,540.66,538.751,0.0
54187.0,STARLINK-5240,PAYLOAD,2024-07-16 04:28:14,15.08834242,0.0001423,53.2166,184.1999,95.1223,264.9932,-1.1883e-05,-4.77e-06,0.0,0 STARLINK-5240,1 54187U 22141AG  24198.18627337 -.00000477  00000-0 -11883-4 0  9991,2 54187  53.2166 184.1999 0001423  95.1223 264.9932 15.08834242 95289,6917.898,95.438,540.747,538.779,0.0
54187.0,STARLINK-5240,PAYLOAD,2024-07-16 09:14:23,15.08836841,0.0001355,53.2162,183.3079,97.2678,262.8468,-1.0205e-05,-4.5e-06,0.0,0 STARLINK-5240,1 54187U 22141AG  24198.38499211 -.00000450  00000-0 -10205-4 0  9999,2 54187  53.2162 183.3079 0001355  97.2678 262.8468 15.08836841 95082,6917.89,95.438,540.692,538.818,0.0
54187.0,STARLINK-5240,PAYLOAD,2024-07-17 05:54:23,15.08844742,0.0001391,53.2162,179.4431,99.9921,260.1228,-3.8089e-05,-8.94e-06,0.0,0 STARLINK-5240,1 54187U 22141AG  24199.24610840 -.00000894  00000-0 -38089-4 0  9990,2 54187  53.2162 179.4431 0001391  99.9921 260.1228 15.08844742 95444,6917.866,95.437,540.693,538.769,0.0
54187.0,STARLINK-5240,PAYLOAD,2024-07-17 07:29:46,15.08846147,0.0001427,53.2165,179.1457,100.0181,260.0973,-2.0959e-05,-6.22e-06,0.0,0 STARLINK-5240,1 54187U 22141AG  24199.31234705 -.00000622  00000-0 -20959-4 0  9996,2 54187  53.2165 179.1457 0001427 100.0181 260.0973 15.08846147 95227,6917.862,95.437,540.714,538.739,0.0
54187.0,STARLINK-5240,PAYLOAD,2024-07-17 15:26:42,15.08842686,0.000138,53.2161,177.6589,100.1357,259.9791,-2.6072e-05,-7.03e-06,0.0,0 STARLINK-5240,1 54187U 22141AG  24199.64355001 -.00000703  00000-0 -26072-4 0  9997,2 54187  53.2161 177.6589 0001380 100.1357 259.9791 15.08842686 95270,6917.872,95.437,540.692,538.783,0.0
54187.0,STARLINK-5240,PAYLOAD,2024-07-18 04:09:48,15.088279,0.00015,53.2166,175.2803,104.2109,255.905,4.4553e-05,4.21e-06,0.0,0 STARLINK-5240,1 54187U 22141AG  24200.17348176  .00000421  00000-0  44553-4 0  9992,2 54187  53.2166 175.2803 0001500 104.2109 255.9050 15.08827900 95582,6917.917,95.438,540.82,538.745,0.0
54187.0,STARLINK-5240,PAYLOAD,2024-07-18 07:20:34,15.08833651,0.0001521,53.2169,174.6856,104.224,255.8921,8.4796e-05,1.062e-05,0.0,0 STARLINK-5240,1 54187U 22141AG  24200.30595775  .00001062  00000-0  84796-4 0  9991,2 54187  53.2169 174.6856 0001521 104.2240 255.8921 15.08833651 95378,6917.9,95.438,540.817,538.713,0.0
